{"type": "FeatureCollection", "features": [ {"type": "Feature", "properties": {"norad_id": 32152, "name": "FENGYUN 1C DEB", "group": "fengyun-1c-debris", "lat": -21.20395626283748, "lon": 156.18165372822116, "alt_km": 742.7147002885858, "timestamp": "2025-12-17T09:00:17.433851+00:00", "meta": {"OBJECT_NAME": "FENGYUN 1C DEB", "OBJECT_ID": "1999-025CSW", "EPOCH": "2025-12-13T04:33:07.876800", "MEAN_MOTION": 14.56753621, "ECCENTRICITY": 0.00550486, "INCLINATION": 98.7606, "RA_OF_ASC_NODE": 148.3543, "ARG_OF_PERICENTER": 199.8134, "MEAN_ANOMALY": 160.0925, "EPHEMERIS_TYPE": 0, "CLASSIFICATION_TYPE": "U", "NORAD_CAT_ID": 32152, "ELEMENT_SET_NO": 999, "REV_AT_EPOCH": 62619, "BSTAR": 0.0034882492, "MEAN_MOTION_DOT": 0.00015905, "MEAN_MOTION_DDOT": 0}, "tle": {"line1": "1 32152U 99025CSW 25347.18967450  .00015905  00000+0  34882-2 0  9995", "line2": "2 32152  98.7606 148.3543 0055048 199.8134 160.0925 14.56753621626193"}}, "geometry": {"type": "Point", "coordinates": [156.18165372822116, -21.20395626283748]}}, {"type": "Feature", "properties": {"norad_id": 32153, "name": "FENGYUN 1C DEB", "group": "fengyun-1c-debris", "lat": 7.695159846888923, "lon": 15.683874409191688, "alt_km": 610.1710545594788, "timestamp": "2025-12-17T09:00:17.433861+00:00", "meta": {"OBJECT_NAME": "FENGYUN 1C DEB", "OBJECT_ID": "1999-025CSX", "EPOCH": "2025-12-16T08:59:42.389088", "MEAN_MOTION": 14.48731291, "ECCENTRICITY": 0.02072991, "INCLINATION": 98.7688, "RA_OF_ASC_NODE": 193.4495, "ARG_OF_PERICENTER": 210.2482, "MEAN_ANOMALY": 148.6612, "EPHEMERIS_TYPE": 0, "CLASSIFICATION_TYPE": "U", "NORAD_CAT_ID": 32153, "ELEMENT_SET_NO": 999, "REV_AT_EPOCH": 97276, "BSTAR": 0.00026240283, "MEAN_MOTION_DOT": 1.239e-05, "MEAN_MOTION_DDOT": 0}, "tle": {"line1": "1 32153U 99025CSX 25350.37479617  .00001239  00000+0  26240-3 0  9999", "line2": "2 32153  98.7688 193.4495 0207299 210.2482 148.6612 14.48731291972764"}}, "geometry": {"type": "Point", "coordinates": [15.683874409191688, 7.695159846888923]}}, {"type": "Feature", "properties": {"norad_id": 32155, "name": "FENGYUN 1C DEB", "group": "fengyun-1c-debris", "lat": -70.28111963581424, "lon": 75.05498569932213, "alt_km": 744.6101107647446, "timestamp": "2025-12-17T09:00:17.433871+00:00", "meta": {"OBJECT_NAME": "FENGYUN 1C DEB", "OBJECT_ID": "1999-025CSZ", "EPOCH": "2025-12-14T12:47:50.436096", "MEAN_MOTION": 14.32956999, "ECCENTRICITY": 0.00690143, "INCLINATION": 98.952, "RA_OF_ASC_NODE": 278.2092, "ARG_OF_PERICENTER": 234.5934, "MEAN_ANOMALY": 124.879, "EPHEMERIS_TYPE": 0, "CLASSIFICATION_TYPE": "U", "NORAD_CAT_ID": 32155, "ELEMENT_SET_NO": 999, "REV_AT_EPOCH": 70248, "BSTAR": 0.00052873215, "MEAN_MOTION_DOT": 1.437e-05, "MEAN_MOTION_DDOT": 0}, "tle": {"line1": "1 32155U 99025CSZ 25348.53322264  .00001437  00000+0  52873-3 0  9992", "line2": "2 32155  98.9520 278.2092 0069014 234.5934 124.8790 14.32956999702480"}}, "geometry": {"type": "Point", "coordinates": [75.05498569932213, -70.28111963581424]}}, {"type": "Feature", "properties": {"norad_id": 32156, "name": "FENGYUN 1C DEB", "group": "fengyun-1c-debris", "lat": -61.31691773625906, "lon": -36.2282017579788, "alt_km": 848.1125392832191, "timestamp": "2025-12-17T09:00:17.433881+00:00", "meta": {"OBJECT_NAME": "FENGYUN 1C DEB", "OBJECT_ID": "1999-025CTA", "EPOCH": "2025-12-16T05:02:42.776448", "MEAN_MOTION": 14.3195706, "ECCENTRICITY": 0.00822162, "INCLINATION": 99.3543, "RA_OF_ASC_NODE": 160.0519, "ARG_OF_PERICENTER": 47.5484, "MEAN_ANOMALY": 313.261, "EPHEMERIS_TYPE": 0, "CLASSIFICATION_TYPE": "U", "NORAD_CAT_ID": 32156, "ELEMENT_SET_NO": 999, "REV_AT_EPOCH": 64870, "BSTAR": 0.00028213677, "MEAN_MOTION_DOT": 7.35e-06, "MEAN_MOTION_DDOT": 0}, "tle": {"line1": "1 32156U 99025CTA 25350.21021732  .00000735  00000+0  28214-3 0  9999", "line2": "2 32156  99.3543 160.0519 0082216  47.5484 313.2610 14.31957060648702"}}, "geometry": {"type": "Point", "coordinates": [-36.2282017579788, -61.31691773625906]}}, {"type": "Feature", "properties": {"norad_id": 32160, "name": "FENGYUN 1C DEB", "group": "fengyun-1c-debris", "lat": 36.48218354679757, "lon": -24.665030513453992, "alt_km": 818.015421858976, "timestamp": "2025-12-17T09:00:17.433891+00:00", "meta": {"OBJECT_NAME": "FENGYUN 1C DEB", "OBJECT_ID": "1999-025CTE", "EPOCH": "2025-12-16T03:56:45.004992", "MEAN_MOTION": 14.37576981, "ECCENTRICITY": 0.00819432, "INCLINATION": 98.8812, "RA_OF_ASC_NODE": 147.445, "ARG_OF_PERICENTER": 348.7665, "MEAN_ANOMALY": 11.1689, "EPHEMERIS_TYPE": 0, "CLASSIFICATION_TYPE": "U", "NORAD_CAT_ID": 32160, "ELEMENT_SET_NO": 999, "REV_AT_EPOCH": 95936, "BSTAR": 0.00040123348, "MEAN_MOTION_DOT": 1.202e-05, "MEAN_MOTION_DDOT": 0}, "tle": {"line1": "1 32160U 99025CTE 25350.16440978  .00001202  00000+0  40123-3 0  9998", "line2": "2 32160  98.8812 147.4450 0081943 348.7665  11.1689 14.37576981959368"}}, "geometry": {"type": "Point", "coordinates": [-24.665030513453992, 36.48218354679757]}}, {"type": "Feature", "properties": {"norad_id": 32161, "name": "FENGYUN 1C DEB", "group": "fengyun-1c-debris", "lat": 65.11534288931537, "lon": 76.28318798310268, "alt_km": 972.9827477878216, "timestamp": "2025-12-17T09:00:17.433901+00:00", "meta": {"OBJECT_NAME": "FENGYUN 1C DEB", "OBJECT_ID": "1999-025CTF", "EPOCH": "2025-12-16T13:50:27.712896", "MEAN_MOTION": 14.01876938, "ECCENTRICITY": 0.01354983, "INCLINATION": 98.8318, "RA_OF_ASC_NODE": 95.0929, "ARG_OF_PERICENTER": 269.3857, "MEAN_ANOMALY": 89.1783, "EPHEMERIS_TYPE": 0, "CLASSIFICATION_TYPE": "U", "NORAD_CAT_ID": 32161, "ELEMENT_SET_NO": 999, "REV_AT_EPOCH": 63483, "BSTAR": 0.00046170844, "MEAN_MOTION_DOT": 7.17e-06, "MEAN_MOTION_DDOT": 0}, "tle": {"line1": "1 32161U 99025CTF 25350.57670964  .00000717  00000+0  46171-3 0  9993", "line2": "2 32161  98.8318  95.0929 0135498 269.3857  89.1783 14.01876938634833"}}, "geometry": {"type": "Point", "coordinates": [76.28318798310268, 65.11534288931537]}}, {"type": "Feature", "properties": {"norad_id": 32162, "name": "FENGYUN 1C DEB", "group": "fengyun-1c-debris", "lat": 6.306895224914458, "lon": 36.13139596501997, "alt_km": 717.8507843799034, "timestamp": "2025-12-17T09:00:17.433914+00:00", "meta": {"OBJECT_NAME": "FENGYUN 1C DEB", "OBJECT_ID": "1999-025CTG", "EPOCH": "2025-12-16T01:46:08.893920", "MEAN_MOTION": 14.6208193, "ECCENTRICITY": 0.00478933, "INCLINATION": 99.4644, "RA_OF_ASC_NODE": 35.699, "ARG_OF_PERICENTER": 160.6975, "MEAN_ANOMALY": 199.6051, "EPHEMERIS_TYPE": 0, "CLASSIFICATION_TYPE": "U", "NORAD_CAT_ID": 32162, "ELEMENT_SET_NO": 999, "REV_AT_EPOCH": 94967, "BSTAR": 0.00091752228, "MEAN_MOTION_DOT": 4.625e-05, "MEAN_MOTION_DDOT": 0}, "tle": {"line1": "1 32162U 99025CTG 25350.07371405  .00004625  00000+0  91752-3 0  9994", "line2": "2 32162  99.4644  35.6990 0047893 160.6975 199.6051 14.62081930949679"}}, "geometry": {"type": "Point", "coordinates": [36.13139596501997, 6.306895224914458]}}, {"type": "Feature", "properties": {"norad_id": 32163, "name": "FENGYUN 1C DEB", "group": "fengyun-1c-debris", "lat": -72.54859648966813, "lon": 145.39500862776907, "alt_km": 776.7215043201668, "timestamp": "2025-12-17T09:00:17.433924+00:00", "meta": {"OBJECT_NAME": "FENGYUN 1C DEB", "OBJECT_ID": "1999-025CTH", "EPOCH": "2025-12-12T06:21:19.094976", "MEAN_MOTION": 14.43120772, "ECCENTRICITY": 0.00516687, "INCLINATION": 99.5465, "RA_OF_ASC_NODE": 352.0409, "ARG_OF_PERICENTER": 36.0432, "MEAN_ANOMALY": 324.422, "EPHEMERIS_TYPE": 0, "CLASSIFICATION_TYPE": "U", "NORAD_CAT_ID": 32163, "ELEMENT_SET_NO": 999, "REV_AT_EPOCH": 60969, "BSTAR": 0.0015195332, "MEAN_MOTION_DOT": 5.133e-05, "MEAN_MOTION_DDOT": 0}, "tle": {"line1": "1 32163U 99025CTH 25346.26480434  .00005133  00000+0  15195-2 0  9995", "line2": "2 32163  99.5465 352.0409 0051668  36.0432 324.4220 14.43120772609690"}}, "geometry": {"type": "Point", "coordinates": [145.39500862776907, -72.54859648966813]}}, {"type": "Feature", "properties": {"norad_id": 32167, "name": "FENGYUN 1C DEB", "group": "fengyun-1c-debris", "lat": 71.4447469456565, "lon": -40.60192905987481, "alt_km": 694.0285534443792, "timestamp": "2025-12-17T09:00:17.433934+00:00", "meta": {"OBJECT_NAME": "FENGYUN 1C DEB", "OBJECT_ID": "1999-025CTM", "EPOCH": "2025-12-16T05:49:26.785632", "MEAN_MOTION": 14.30987892, "ECCENTRICITY": 0.01716497, "INCLINATION": 98.4935, "RA_OF_ASC_NODE": 344.7253, "ARG_OF_PERICENTER": 31.4386, "MEAN_ANOMALY": 329.6921, "EPHEMERIS_TYPE": 0, "CLASSIFICATION_TYPE": "U", "NORAD_CAT_ID": 32167, "ELEMENT_SET_NO": 999, "REV_AT_EPOCH": 62725, "BSTAR": 0.00039856594, "MEAN_MOTION_DOT": 1.185e-05, "MEAN_MOTION_DDOT": 0}, "tle": {"line1": "1 32167U 99025CTM 25350.24267113  .00001185  00000+0  39857-3 0  9994", "line2": "2 32167  98.4935 344.7253 0171649  31.4386 329.6921 14.30987892627255"}}, "geometry": {"type": "Point", "coordinates": [-40.60192905987481, 71.4447469456565]}}, {"type": "Feature", "properties": {"norad_id": 32168, "name": "FENGYUN 1C DEB", "group": "fengyun-1c-debris", "lat": -56.9419447574345, "lon": 80.05349927958552, "alt_km": 897.404459133817, "timestamp": "2025-12-17T09:00:17.433944+00:00", "meta": {"OBJECT_NAME": "FENGYUN 1C DEB", "OBJECT_ID": "1999-025CTN", "EPOCH": "2025-12-15T22:38:45.880512", "MEAN_MOTION": 13.86172318, "ECCENTRICITY": 0.02433261, "INCLINATION": 101.6575, "RA_OF_ASC_NODE": 59.781, "ARG_OF_PERICENTER": 230.209, "MEAN_ANOMALY": 127.7405, "EPHEMERIS_TYPE": 0, "CLASSIFICATION_TYPE": "U", "NORAD_CAT_ID": 32168, "ELEMENT_SET_NO": 999, "REV_AT_EPOCH": 63524, "BSTAR": 0.0026145493, "MEAN_MOTION_DOT": 3.743e-05, "MEAN_MOTION_DDOT": 0}, "tle": {"line1": "1 32168U 99025CTN 25349.94358658  .00003743  00000+0  26145-2 0  9992", "line2": "2 32168 101.6575  59.7810 0243326 230.2090 127.7405 13.86172318635249"}}, "geometry": {"type": "Point", "coordinates": [80.05349927958552, -56.9419447574345]}}]}